[{"OBJECT_NAME":"STARLINK-1452","OBJECT_ID":"2020-035N","EPOCH":"2026-03-09T03:54:47.994336","MEAN_MOTION":15.44914586,"ECCENTRICITY":0.00080076,"INCLINATION":53.0334,"RA_OF_ASC_NODE":24.2429,"ARG_OF_PERICENTER":52.8149,"MEAN_ANOMALY":307.3586,"EPHEMERIS_TYPE":0,"CLASSIFICATION_TYPE":"U","NORAD_CAT_ID":45669,"ELEMENT_SET_NO":999,"REV_AT_EPOCH":31928,"BSTAR":0.0019010434,"MEAN_MOTION_DOT":0.0009155,"MEAN_MOTION_DDOT":0},{"OBJECT_NAME":"FLOCK 4Q-9","OBJECT_ID":"2023-174BU","EPOCH":"2026-03-09T18:14:26.529792","MEAN_MOTION":15.44691322,"ECCENTRICITY":0.0008057,"INCLINATION":97.3895,"RA_OF_ASC_NODE":155.2137,"ARG_OF_PERICENTER":139.6631,"MEAN_ANOMALY":220.5217,"EPHEMERIS_TYPE":0,"CLASSIFICATION_TYPE":"U","NORAD_CAT_ID":58322,"ELEMENT_SET_NO":999,"REV_AT_EPOCH":13021,"BSTAR":0.00055840083,"MEAN_MOTION_DOT":0.00026044,"MEAN_MOTION_DDOT":0}]
